[{"OBJECT_NAME":"ONEWEB-0573","OBJECT_ID":"2023-004N","EPOCH":"2025-10-19T06:46:33.297312","MEAN_MOTION":13.1868583,"ECCENTRICITY":0.00026027,"INCLINATION":87.9216,"RA_OF_ASC_NODE":23.3416,"ARG_OF_PERICENTER":92.9614,"MEAN_ANOMALY":267.1816,"EPHEMERIS_TYPE":0,"CLASSIFICATION_TYPE":"U","NORAD_CAT_ID":55152,"ELEMENT_SET_NO":999,"REV_AT_EPOCH":13794,"BSTAR":0.00013266249,"MEAN_MOTION_DOT":6.5e-7,"MEAN_MOTION_DDOT":0},{"OBJECT_NAME":"ONEWEB-0588","OBJECT_ID":"2023-004P","EPOCH":"2025-10-19T06:37:02.386848","MEAN_MOTION":13.18685156,"ECCENTRICITY":0.00020945,"INCLINATION":87.9224,"RA_OF_ASC_NODE":23.3323,"ARG_OF_PERICENTER":90.6778,"MEAN_ANOMALY":269.4594,"EPHEMERIS_TYPE":0,"CLASSIFICATION_TYPE":"U","NORAD_CAT_ID":55153,"ELEMENT_SET_NO":999,"REV_AT_EPOCH":13794,"BSTAR":0.00018931981,"MEAN_MOTION_DOT":8.8e-7,"MEAN_MOTION_DDOT":0},{"OBJECT_NAME":"ONEWEB-0598","OBJECT_ID":"2023-004Q","EPOCH":"2025-10-19T06:59:33.086688","MEAN_MOTION":13.11419205,"ECCENTRICITY":0.00021805,"INCLINATION":87.8823,"RA_OF_ASC_NODE":69.0528,"ARG_OF_PERICENTER":105.6032,"MEAN_ANOMALY":254.5337,"EPHEMERIS_TYPE":0,"CLASSIFICATION_TYPE":"U","NORAD_CAT_ID":55154,"ELEMENT_SET_NO":999,"REV_AT_EPOCH":13432,"BSTAR":0.0015529041,"MEAN_MOTION_DOT":5.63e-6,"MEAN_MOTION_DDOT":0},{"OBJECT_NAME":"ONEWEB-0599","OBJECT_ID":"2023-004R","EPOCH":"2025-10-19T07:22:26.101056","MEAN_MOTION":13.17648489,"ECCENTRICITY":0.00017593,"INCLINATION":87.9115,"RA_OF_ASC_NODE":53.7692,"ARG_OF_PERICENTER":104.9833,"MEAN_ANOMALY":255.1494,"EPHEMERIS_TYPE":0,"CLASSIFICATION_TYPE":"U","NORAD_CAT_ID":55155,"ELEMENT_SET_NO":999,"REV_AT_EPOCH":13576,"BSTAR":8.58336e-7,"MEAN_MOTION_DOT":1.3e-7,"MEAN_MOTION_DDOT":0},{"OBJECT_NAME":"ONEWEB-0614","OBJECT_ID":"2023-004S","EPOCH":"2025-10-18T19:53:02.527872","MEAN_MOTION":13.11417457,"ECCENTRICITY":0.00015809,"INCLINATION":87.8824,"RA_OF_ASC_NODE":69.1548,"ARG_OF_PERICENTER":83.3234,"MEAN_ANOMALY":276.8074,"EPHEMERIS_TYPE":0,"CLASSIFICATION_TYPE":"U","NORAD_CAT_ID":55156,"ELEMENT_SET_NO":999,"REV_AT_EPOCH":13420,"BSTAR":0.00125822,"MEAN_MOTION_DOT":4.59e-6,"MEAN_MOTION_DDOT":0},{"OBJECT_NAME":"ONEWEB-0616","OBJECT_ID":"2023-004T","EPOCH":"2025-10-19T06:33:51.009984","MEAN_MOTION":13.17648907,"ECCENTRICITY":0.00015644,"INCLINATION":87.9111,"RA_OF_ASC_NODE":53.7666,"ARG_OF_PERICENTER":135.947,"MEAN_ANOMALY":224.1787,"EPHEMERIS_TYPE":0,"CLASSIFICATION_TYPE":"U","NORAD_CAT_ID":55157,"ELEMENT_SET_NO":999,"REV_AT_EPOCH":13597,"BSTAR":-4.4288939e-5,"MEAN_MOTION_DOT":-4.0e-8,"MEAN_MOTION_DDOT":0},{"OBJECT_NAME":"ONEWEB-0617","OBJECT_ID":"2023-004U","EPOCH":"2025-10-19T02:55:24.047904","MEAN_MOTION":13.11419068,"ECCENTRICITY":0.00017968,"INCLINATION":87.882,"RA_OF_ASC_NODE":69.0747,"ARG_OF_PERICENTER":86.1388,"MEAN_ANOMALY":273.9945,"EPHEMERIS_TYPE":0,"CLASSIFICATION_TYPE":"U","NORAD_CAT_ID":55158,"ELEMENT_SET_NO":999,"REV_AT_EPOCH":13426,"BSTAR":-0.000345305,"MEAN_MOTION_DOT":-1.1e-6,"MEAN_MOTION_DDOT":0},{"OBJECT_NAME":"ONEWEB-0618","OBJECT_ID":"2023-004V","EPOCH":"2025-10-19T05:21:03.026880","MEAN_MOTION":15.09502526,"ECCENTRICITY":0.00166843,"INCLINATION":86.9051,"RA_OF_ASC_NODE":275.2894,"ARG_OF_PERICENTER":105.7741,"MEAN_ANOMALY":254.5338,"EPHEMERIS_TYPE":0,"CLASSIFICATION_TYPE":"U","NORAD_CAT_ID":55159,"ELEMENT_SET_NO":999,"REV_AT_EPOCH":14586,"BSTAR":0.00061327457,"MEAN_MOTION_DOT":9.89e-5,"MEAN_MOTION_DDOT":0},{"OBJECT_NAME":"ONEWEB-0619","OBJECT_ID":"2023-004W","EPOCH":"2025-10-19T07:19:59.824128","MEAN_MOTION":13.17647574,"ECCENTRICITY":0.00011853,"INCLINATION":87.9111,"RA_OF_ASC_NODE":53.7346,"ARG_OF_PERICENTER":93.4247,"MEAN_ANOMALY":266.702,"EPHEMERIS_TYPE":0,"CLASSIFICATION_TYPE":"U","NORAD_CAT_ID":55160,"ELEMENT_SET_NO":999,"REV_AT_EPOCH":13587,"BSTAR":-8.2674778e-5,"MEAN_MOTION_DOT":-1.9e-7,"MEAN_MOTION_DDOT":0},{"OBJECT_NAME":"ONEWEB-0620","OBJECT_ID":"2023-004X","EPOCH":"2025-10-18T21:18:28.100736","MEAN_MOTION":13.11418639,"ECCENTRICITY":0.00018258,"INCLINATION":87.8819,"RA_OF_ASC_NODE":69.1419,"ARG_OF_PERICENTER":95.7633,"MEAN_ANOMALY":264.3703,"EPHEMERIS_TYPE":0,"CLASSIFICATION_TYPE":"U","NORAD_CAT_ID":55161,"ELEMENT_SET_NO":999,"REV_AT_EPOCH":13420,"BSTAR":-0.00086928147,"MEAN_MOTION_DOT":-2.95e-6,"MEAN_MOTION_DDOT":0},{"OBJECT_NAME":"ONEWEB-0621","OBJECT_ID":"2023-004Y","EPOCH":"2025-10-18T20:07:40.763136","MEAN_MOTION":13.11416938,"ECCENTRICITY":0.00014514,"INCLINATION":87.8832,"RA_OF_ASC_NODE":69.1159,"ARG_OF_PERICENTER":89.3037,"MEAN_ANOMALY":270.8257,"EPHEMERIS_TYPE":0,"CLASSIFICATION_TYPE":"U","NORAD_CAT_ID":55162,"ELEMENT_SET_NO":999,"REV_AT_EPOCH":13417,"BSTAR":0.0014082372,"MEAN_MOTION_DOT":5.12e-6,"MEAN_MOTION_DDOT":0},{"OBJECT_NAME":"ONEWEB-0622","OBJECT_ID":"2023-004Z","EPOCH":"2025-10-19T07:14:13.371360","MEAN_MOTION":13.11416127,"ECCENTRICITY":0.000197,"INCLINATION":87.8819,"RA_OF_ASC_NODE":69.0388,"ARG_OF_PERICENTER":73.8958,"MEAN_ANOMALY":286.2387,"EPHEMERIS_TYPE":0,"CLASSIFICATION_TYPE":"U","NORAD_CAT_ID":55163,"ELEMENT_SET_NO":999,"REV_AT_EPOCH":13422,"BSTAR":0.0011624419,"MEAN_MOTION_DOT":4.25e-6,"MEAN_MOTION_DDOT":0},{"OBJECT_NAME":"ONEWEB-0623","OBJECT_ID":"2023-004AA","EPOCH":"2025-10-19T07:12:43.421184","MEAN_MOTION":13.17648816,"ECCENTRICITY":0.00015778,"INCLINATION":87.9104,"RA_OF_ASC_NODE":53.789,"ARG_OF_PERICENTER":73.3108,"MEAN_ANOMALY":286.8197,"EPHEMERIS_TYPE":0,"CLASSIFICATION_TYPE":"U","NORAD_CAT_ID":55164,"ELEMENT_SET_NO":999,"REV_AT_EPOCH":13586,"BSTAR":3.6376385e-5,"MEAN_MOTION_DOT":2.7e-7,"MEAN_MOTION_DDOT":0},{"OBJECT_NAME":"ONEWEB-0624","OBJECT_ID":"2023-004AB","EPOCH":"2025-10-19T07:08:13.950816","MEAN_MOTION":13.12915954,"ECCENTRICITY":0.0001614,"INCLINATION":87.8957,"RA_OF_ASC_NODE":38.4883,"ARG_OF_PERICENTER":92.136,"MEAN_ANOMALY":267.9954,"EPHEMERIS_TYPE":0,"CLASSIFICATION_TYPE":"U","NORAD_CAT_ID":55165,"ELEMENT_SET_NO":999,"REV_AT_EPOCH":13646,"BSTAR":0.00080558489,"MEAN_MOTION_DOT":3.05e-6,"MEAN_MOTION_DDOT":0},{"OBJECT_NAME":"ONEWEB-0625","OBJECT_ID":"2023-004AC","EPOCH":"2025-10-19T06:58:07.620672","MEAN_MOTION":13.17649164,"ECCENTRICITY":0.0001597,"INCLINATION":87.9103,"RA_OF_ASC_NODE":53.7868,"ARG_OF_PERICENTER":103.9145,"MEAN_ANOMALY":256.2165,"EPHEMERIS_TYPE":0,"CLASSIFICATION_TYPE":"U","NORAD_CAT_ID":55166,"ELEMENT_SET_NO":999,"REV_AT_EPOCH":13585,"BSTAR":5.3040672e-5,"MEAN_MOTION_DOT":3.3e-7,"MEAN_MOTION_DDOT":0},{"OBJECT_NAME":"ONEWEB-0626","OBJECT_ID":"2023-004AD","EPOCH":"2025-10-19T06:43:34.350816","MEAN_MOTION":13.17649118,"ECCENTRICITY":0.00021626,"INCLINATION":87.9103,"RA_OF_ASC_NODE":53.7879,"ARG_OF_PERICENTER":103.5129,"MEAN_ANOMALY":256.6244,"EPHEMERIS_TYPE":0,"CLASSIFICATION_TYPE":"U","NORAD_CAT_ID":55167,"ELEMENT_SET_NO":999,"REV_AT_EPOCH":13585,"BSTAR":2.1979356e-5,"MEAN_MOTION_DOT":2.1e-7,"MEAN_MOTION_DDOT":0},{"OBJECT_NAME":"ONEWEB-0627","OBJECT_ID":"2023-004AE","EPOCH":"2025-10-19T06:26:33.982368","MEAN_MOTION":13.17649656,"ECCENTRICITY":0.00017018,"INCLINATION":87.9102,"RA_OF_ASC_NODE":53.7915,"ARG_OF_PERICENTER":79.0399,"MEAN_ANOMALY":281.0924,"EPHEMERIS_TYPE":0,"CLASSIFICATION_TYPE":"U","NORAD_CAT_ID":55168,"ELEMENT_SET_NO":999,"REV_AT_EPOCH":13585,"BSTAR":0.00011130514,"MEAN_MOTION_DOT":5.6e-7,"MEAN_MOTION_DDOT":0}]
