ONEWEB-0573             
1 55152U 23004N   25292.28232983  .00000065  00000+0  13266-3 0  9995
2 55152  87.9216  23.3416 0002602  92.9614 267.1816 13.18685830137941
ONEWEB-0588             
1 55153U 23004P   25292.27572207  .00000088  00000+0  18932-3 0  9991
2 55153  87.9224  23.3323 0002094  90.6778 269.4594 13.18685156137948
ONEWEB-0598             
1 55154U 23004Q   25292.29135517  .00000563  00000+0  15529-2 0  9999
2 55154  87.8823  69.0528 0002180 105.6032 254.5337 13.11419205134325
ONEWEB-0599             
1 55155U 23004R   25292.30724654  .00000013  00000+0  85834-6 0  9998
2 55155  87.9115  53.7692 0001759 104.9833 255.1494 13.17648489135769
ONEWEB-0614             
1 55156U 23004S   25291.82850148  .00000459  00000+0  12582-2 0  9993
2 55156  87.8824  69.1548 0001580  83.3234 276.8074 13.11417457134209
ONEWEB-0616             
1 55157U 23004T   25292.27350706 -.00000004  00000+0 -44289-4 0  9998
2 55157  87.9111  53.7666 0001564 135.9470 224.1787 13.17648907135972
ONEWEB-0617             
1 55158U 23004U   25292.12180611 -.00000110  00000+0 -34531-3 0  9995
2 55158  87.8820  69.0747 0001796  86.1388 273.9945 13.11419068134268
ONEWEB-0618             
1 55159U 23004V   25292.22295170  .00009890  00000+0  61327-3 0  9999
2 55159  86.9051 275.2894 0016684 105.7741 254.5338 15.09502526145862
ONEWEB-0619             
1 55160U 23004W   25292.30555352 -.00000019  00000+0 -82675-4 0  9997
2 55160  87.9111  53.7346 0001185  93.4247 266.7020 13.17647574135870
ONEWEB-0620             
1 55161U 23004X   25291.88782524 -.00000295  00000+0 -86928-3 0  9993
2 55161  87.8819  69.1419 0001825  95.7633 264.3703 13.11418639134202
ONEWEB-0621             
1 55162U 23004Y   25291.83866624  .00000512  00000+0  14082-2 0  9994
2 55162  87.8832  69.1159 0001451  89.3037 270.8257 13.11416938134173
ONEWEB-0622             
1 55163U 23004Z   25292.30154365  .00000425  00000+0  11624-2 0  9992
2 55163  87.8819  69.0388 0001970  73.8958 286.2387 13.11416127134229
ONEWEB-0623             
1 55164U 23004AA  25292.30050256  .00000027  00000+0  36376-4 0  9998
2 55164  87.9104  53.7890 0001577  73.3108 286.8197 13.17648816135865
ONEWEB-0624             
1 55165U 23004AB  25292.29738369  .00000305  00000+0  80558-3 0  9994
2 55165  87.8957  38.4883 0001614  92.1360 267.9954 13.12915954136467
ONEWEB-0625             
1 55166U 23004AC  25292.29036598  .00000033  00000+0  53041-4 0  9996
2 55166  87.9103  53.7868 0001597 103.9145 256.2165 13.17649164135856
ONEWEB-0626             
1 55167U 23004AD  25292.28025869  .00000021  00000+0  21979-4 0  9997
2 55167  87.9103  53.7879 0002162 103.5129 256.6244 13.17649118135857
ONEWEB-0627             
1 55168U 23004AE  25292.26844887  .00000056  00000+0  11131-3 0  9991
2 55168  87.9102  53.7915 0001701  79.0399 281.0924 13.17649656135856
